ORBCOMM FM35            
1 25985U 99065F   26061.99715977  .00001163  00000+0  42873-3 0  9994
2 25985  45.0401 310.7845 0003436 267.2899  92.7557 14.37854906372028
ORBCOMM FM34            
1 25986U 99065G   26062.10654293  .00001051  00000+0  39271-3 0  9996
2 25986  45.0397 310.7734 0002921 209.8892 150.1790 14.37769389372155
ORBCOMM FM38            
1 33060U 08031A   26061.64915159  .00002504  00000+0  33364-3 0  9991
2 33060  48.4385 162.2872 0003863  74.9274 285.2070 14.82694536953084
ORBCOMM FM41            
1 33061U 08031B   26061.68922609  .00002386  00000+0  32254-3 0  9999
2 33061  48.4422 170.8074 0003190  54.8287  94.8832 14.82230136952564
ORBCOMM FM29            
1 33062U 08031C   26061.62500221  .00002596  00000+0  34717-3 0  9995
2 33062  48.4372 178.5509 0004793  55.8343 317.9070 14.82402460952475
ORBCOMM FM39            
1 33063U 08031D   26061.78434216  .00002362  00000+0  33054-3 0  9997
2 33063  48.4382 205.0478 0005957  24.0572 336.0621 14.80786009952109
ORBCOMM FM37            
1 33064U 08031E   26061.65409653  .00002325  00000+0  32436-3 0  9993
2 33064  48.4378 193.7895 0004417  44.2745 329.2713 14.80979534952346
ORBCOMM FM40            
1 33065U 08031F   26061.70702896  .00003023  00000+0  38859-3 0  9996
2 33065  48.4397 172.9223 0005240  63.6150  80.1385 14.83612807952520
VESSELSAT 1             
1 37840U 11058C   26062.07155260  .00000389  00000+0  67500-4 0  9990
2 37840  19.9630 327.2998 0013723 154.1814 205.9277 14.11418703742928
ORBCOMM FM109           
1 40086U 14040A   26061.80118682  .00000659  00000+0  17610-3 0  9993
2 40086  47.0020 234.4234 0001144 103.9114 256.1899 14.58709110618814
ORBCOMM FM107           
1 40087U 14040B   26061.88469421  .00000865  00000+0  21939-3 0  9990
2 40087  47.0035 234.8828 0000721 352.7101   7.3774 14.58792824618906
ORBCOMM FM106           
1 40088U 14040C   26061.13004031  .00001221  00000+0  23114-3 0  9995
2 40088  47.0609  39.6269 0016280 189.3078 170.7514 14.70278722621426
ORBCOMM FM111           
1 40089U 14040D   26061.58831045  .00003679  00000+0  41414-3 0  9990
2 40089  46.9988 211.6175 0028412 349.4563  10.5736 14.88288660628695
ORBCOMM FM104           
1 40090U 14040E   26062.02257832  .00000625  00000+0  17452-3 0  9991
2 40090  47.0044 270.9856 0016497 307.1942  52.7437 14.57154629618360
ORBCOMM FM103           
1 40091U 14040F   26061.80351904  .00000785  00000+0  20296-3 0  9999
2 40091  47.0039 235.9826 0001284   8.6397 351.4511 14.58695516601852
ORBCOMM FM114           
1 41179U 15081A   26061.54515524  .00000724  00000+0  18992-3 0  9997
2 41179  47.0042 146.1443 0001296  67.9752 292.1272 14.58716063542184
ORBCOMM FM119           
1 41180U 15081B   26062.02364434  .00000805  00000+0  20726-3 0  9993
2 41180  47.0007  53.2406 0000868 216.4293 143.6534 14.58659435543506
